NORAD_CAT_ID,OBJECT_NAME,OBJECT_TYPE,EPOCH,MEAN_MOTION,ECCENTRICITY,INCLINATION,RA_OF_ASC_NODE,ARG_OF_PERICENTER,MEAN_ANOMALY,BSTAR,MEAN_MOTION_DOT,MEAN_MOTION_DDOT,TLE_LINE0,TLE_LINE1,TLE_LINE2,SEMIMAJOR_AXIS,PERIOD,APOGEE,PERIGEE,DECAYED
54094.0,STARLINK-5219,PAYLOAD,2024-06-21 05:43:36,15.08834523,0.0001552,53.2184,266.2004,94.0945,266.0224,9.7795e-05,1.269e-05,0.0,0 STARLINK-5219,1 54094U 22136AV  24173.23861573  .00001269  00000-0  97795-4 0  9997,2 54094  53.2184 266.2004 0001552  94.0945 266.0224 15.08834523 92889,6917.897,95.438,540.836,538.688,0.0
54094.0,STARLINK-5219,PAYLOAD,2024-06-21 13:40:32,15.08835484,0.0001513,53.2182,264.7133,92.7181,267.3984,9.6106e-05,1.242e-05,0.0,0 STARLINK-5219,1 54094U 22136AV  24173.56981704  .00001242  00000-0  96106-4 0  9998,2 54094  53.2182 264.7133 0001513  92.7181 267.3984 15.08835484 92465,6917.894,95.438,540.806,538.713,0.0
54094.0,STARLINK-5219,PAYLOAD,2024-06-22 13:31:18,15.08846737,0.0001541,53.2177,260.2525,71.8466,288.2693,6.6785e-05,7.75e-06,0.0,0 STARLINK-5219,1 54094U 22136AV  24174.56341201  .00000775  00000-0  66785-4 0  9991,2 54094  53.2177 260.2525 0001541  71.8466 288.2693 15.08846737 93081,6917.86,95.437,540.791,538.659,0.0
54094.0,STARLINK-5219,PAYLOAD,2024-06-22 15:06:41,15.08850704,0.0001418,53.2175,259.9554,81.5508,278.5644,0.00012509,1.704e-05,0.0,0 STARLINK-5219,1 54094U 22136AV  24174.62964673  .00001704  00000-0  12509-3 0  9999,2 54094  53.2175 259.9554 0001418  81.5508 278.5644 15.08850704 92620,6917.848,95.437,540.694,538.732,0.0
54094.0,STARLINK-5219,PAYLOAD,2024-06-23 05:25:10,15.08834286,0.0001157,53.2171,257.276,101.1666,258.9456,0.00013707,1.894e-05,0.0,0 STARLINK-5219,1 54094U 22136AV  24175.22581465  .00001894  00000-0  13707-3 0  9991,2 54094  53.2171 257.2760 0001157 101.1666 258.9456 15.08834286 93182,6917.898,95.438,540.563,538.962,0.0
54094.0,STARLINK-5219,PAYLOAD,2024-06-23 11:46:42,15.08841791,0.0001328,53.2168,256.0893,86.2469,273.8675,7.7195e-05,9.41e-06,0.0,0 STARLINK-5219,1 54094U 22136AV  24175.49077206  .00000941  00000-0  77195-4 0  9997,2 54094  53.2168 256.0893 0001328  86.2469 273.8675 15.08841791 92756,6917.875,95.437,540.659,538.821,0.0
54094.0,STARLINK-5219,PAYLOAD,2024-06-24 11:37:29,15.08845941,0.0001533,53.2171,251.629,93.3583,266.7585,7.8945e-05,9.69e-06,0.0,0 STARLINK-5219,1 54094U 22136AV  24176.48436702  .00000969  00000-0  78945-4 0  9991,2 54094  53.2171 251.6290 0001533  93.3583 266.7585 15.08845941 92905,6917.862,95.437,540.788,538.667,0.0
54094.0,STARLINK-5219,PAYLOAD,2024-06-25 11:28:17,15.08836743,0.00015,53.2177,247.1682,98.2311,261.8852,-2.3701e-05,-6.65e-06,0.0,0 STARLINK-5219,1 54094U 22136AV  24177.47797473 -.00000665  00000-0 -23701-4 0  9991,2 54094  53.2177 247.1682 0001500  98.2311 261.8852 15.08836743 93525,6917.89,95.438,540.793,538.718,0.0
54094.0,STARLINK-5219,PAYLOAD,2024-06-26 09:43:40,15.08843272,0.0001477,53.2174,243.0054,100.9944,259.1215,7.037e-05,8.32e-06,0.0,0 STARLINK-5219,1 54094U 22136AV  24178.40532696  .00000832  00000-0  70370-4 0  9997,2 54094  53.2174 243.0054 0001477 100.9944 259.1215 15.08843272 93669,6917.87,95.437,540.757,538.714,0.0
54094.0,STARLINK-5219,PAYLOAD,2024-06-27 11:09:51,15.08837038,0.0001215,53.216,238.2469,94.3779,265.7352,4.0276e-05,3.53e-06,0.0,0 STARLINK-5219,1 54094U 22136AV  24179.46517395  .00000353  00000-0  40276-4 0  9993,2 54094  53.2160 238.2469 0001215  94.3779 265.7352 15.08837038 93828,6917.889,95.438,540.595,538.914,0.0
54094.0,STARLINK-5219,PAYLOAD,2024-06-28 11:00:38,15.08835904,0.0001318,53.2158,233.7868,100.71,259.4041,0.00015068,2.111e-05,0.0,0 STARLINK-5219,1 54094U 22136AV  24180.45877323  .00002111  00000-0  15068-3 0  9998,2 54094  53.2158 233.7868 0001318 100.7100 259.4041 15.08835904 93502,6917.893,95.438,540.67,538.846,0.0
54094.0,STARLINK-5219,PAYLOAD,2024-06-29 12:26:49,15.08823765,0.000127,53.2155,229.0278,85.7215,274.3922,0.0002072,3.01e-05,0.0,0 STARLINK-5219,1 54094U 22136AV  24181.51862310  .00003010  00000-0  20720-3 0  9996,2 54094  53.2155 229.0278 0001270  85.7215 274.3922 15.08823765 94134,6917.93,95.439,540.674,538.916,0.0
54094.0,STARLINK-5219,PAYLOAD,2024-06-30 12:17:35,15.088403,0.0001433,53.216,224.5658,76.8316,283.2836,4.7021e-05,4.6e-06,0.0,0 STARLINK-5219,1 54094U 22136AV  24182.51222084  .00000460  00000-0  47021-4 0  9995,2 54094  53.2160 224.5658 0001433  76.8316 283.2836 15.08840300 94289,6917.879,95.438,540.736,538.753,0.0
54094.0,STARLINK-5219,PAYLOAD,2024-06-30 20:14:31,15.08838472,0.0001227,53.2148,223.0789,90.0501,270.0632,6.0699e-05,6.78e-06,0.0,0 STARLINK-5219,1 54094U 22136AV  24182.84342079  .00000678  00000-0  60699-4 0  9995,2 54094  53.2148 223.0789 0001227  90.0501 270.0632 15.08838472 93867,6917.885,95.438,540.599,538.901,0.0
54094.0,STARLINK-5219,PAYLOAD,2024-07-01 08:57:36,15.08837616,0.0001258,53.2151,220.6999,88.3447,271.769,8.1597e-05,1.011e-05,0.0,0 STARLINK-5219,1 54094U 22136AV  24183.37334187  .00001011  00000-0  81597-4 0  9997,2 54094  53.2151 220.6999 0001258  88.3447 271.7690 15.08837616 93940,6917.888,95.438,540.623,538.882,0.0
54094.0,STARLINK-5219,PAYLOAD,2024-07-01 20:05:18,15.08841187,0.00013,53.2154,218.6189,86.3423,273.7718,0.00011348,1.519e-05,0.0,0 STARLINK-5219,1 54094U 22136AV  24183.83701895  .00001519  00000-0  11348-3 0  9991,2 54094  53.2154 218.6189 0001300  86.3423 273.7718 15.08841187 94482,6917.877,95.437,540.641,538.842,0.0
54094.0,STARLINK-5219,PAYLOAD,2024-07-02 08:48:23,15.08841784,0.0001393,53.2159,216.24,90.8492,269.2659,5.4587e-05,5.81e-06,0.0,0 STARLINK-5219,1 54094U 22136AV  24184.36694081  .00000581  00000-0  54587-4 0  9999,2 54094  53.2159 216.2400 0001393  90.8492 269.2659 15.08841784 94099,6917.875,95.437,540.704,538.776,0.0
54094.0,STARLINK-5219,PAYLOAD,2024-07-03 05:28:24,15.0884057,0.0001423,53.2162,212.3744,91.6418,268.4738,1.6259e-05,-2.9e-07,0.0,0 STARLINK-5219,1 54094U 22136AV  24185.22806184 -.00000029  00000-0  16259-4 0  9996,2 54094  53.2162 212.3744 0001423  91.6418 268.4738 15.08840570 94699,6917.879,95.438,540.728,538.759,0.0
54094.0,STARLINK-5219,PAYLOAD,2024-07-03 18:11:29,15.08841278,0.0001373,53.2154,209.9942,91.5013,268.6137,8.9658e-06,-1.45e-06,0.0,0 STARLINK-5219,1 54094U 22136AV  24185.75797993 -.00000145  00000-0  89658-5 0  9994,2 54094  53.2154 209.9942 0001373  91.5013 268.6137 15.08841278 94305,6917.876,95.437,540.691,538.792,0.0
54094.0,STARLINK-5219,PAYLOAD,2024-07-04 05:19:11,15.08833791,0.0001549,53.2159,207.9122,108.0459,252.0702,-3.3996e-05,-8.29e-06,0.0,0 STARLINK-5219,1 54094U 22136AV  24186.22166649 -.00000829  00000-0 -33996-4 0  9998,2 54094  53.2159 207.9122 0001549 108.0459 252.0702 15.08833791 94846,6917.899,95.438,540.836,538.693,0.0
54094.0,STARLINK-5219,PAYLOAD,2024-07-04 08:29:58,15.08831876,0.0001309,53.2162,207.3226,93.3082,266.806,-2.9987e-06,-3.36e-06,0.0,0 STARLINK-5219,1 54094U 22136AV  24186.35414744 -.00000336  00000-0 -29987-5 0  9993,2 54094  53.2162 207.3226 0001309  93.3082 266.8060 15.08831876 94393,6917.905,95.438,540.676,538.865,0.0
54094.0,STARLINK-5219,PAYLOAD,2024-07-04 18:02:17,15.08836886,0.0001412,53.2164,205.5378,96.2243,263.891,-3.3725e-05,-8.25e-06,0.0,0 STARLINK-5219,1 54094U 22136AV  24186.75158641 -.00000825  00000-0 -33725-4 0  9995,2 54094  53.2164 205.5378 0001412  96.2243 263.8910 15.08836886 94453,6917.89,95.438,540.732,538.778,0.0
54094.0,STARLINK-5219,PAYLOAD,2024-07-05 05:09:58,15.08840643,0.0001418,53.2163,203.4559,100.1853,259.9299,1.1524e-05,-1.05e-06,0.0,0 STARLINK-5219,1 54094U 22136AV  24187.21526354 -.00000105  00000-0  11524-4 0  9990,2 54094  53.2163 203.4559 0001418 100.1853 259.9299 15.08840643 94999,6917.878,95.438,540.724,538.762,0.0
54094.0,STARLINK-5219,PAYLOAD,2024-07-05 08:20:45,15.08840299,0.000141,53.2163,202.8609,98.6673,261.4479,7.2843e-06,-1.72e-06,0.0,0 STARLINK-5219,1 54094U 22136AV  24187.34774386 -.00000172  00000-0  72843-5 0  9990,2 54094  53.2163 202.8609 0001410  98.6673 261.4479 15.08840299 94547,6917.879,95.438,540.72,538.769,0.0
54094.0,STARLINK-5219,PAYLOAD,2024-07-05 17:53:03,15.08838327,0.0001392,53.2166,201.0768,97.5047,262.6103,2.0899e-05,4.5e-07,0.0,0 STARLINK-5219,1 54094U 22136AV  24187.74518485  .00000045  00000-0  20899-4 0  9991,2 54094  53.2166 201.0768 0001392  97.5047 262.6103 15.08838327 94602,6917.886,95.438,540.713,538.788,0.0
54094.0,STARLINK-5219,PAYLOAD,2024-07-06 05:00:46,15.08833002,0.0001325,53.2161,198.9941,92.6413,267.4731,5.7813e-05,6.32e-06,0.0,0 STARLINK-5219,1 54094U 22136AV  24188.20886818  .00000632  00000-0  57813-4 0  9999,2 54094  53.2161 198.9941 0001325  92.6413 267.4731 15.08833002 95148,6917.902,95.438,540.683,538.85,0.0
54094.0,STARLINK-5219,PAYLOAD,2024-07-06 11:22:18,15.08835517,0.0001323,53.2161,197.8046,91.0378,269.0765,5.8044e-05,6.36e-06,0.0,0 STARLINK-5219,1 54094U 22136AV  24188.47382709  .00000636  00000-0  58044-4 0  9999,2 54094  53.2161 197.8046 0001323  91.0378 269.0765 15.08835517 94713,6917.894,95.438,540.674,538.844,0.0
54094.0,STARLINK-5219,PAYLOAD,2024-07-06 17:43:51,15.08835608,0.0001315,53.2162,196.6149,89.3752,270.7391,3.6561e-05,2.94e-06,0.0,0 STARLINK-5219,1 54094U 22136AV  24188.73878828  .00000294  00000-0  36561-4 0  9990,2 54094  53.2162 196.6149 0001315  89.3752 270.7391 15.08835608 94751,6917.894,95.438,540.669,538.849,0.0
54094.0,STARLINK-5219,PAYLOAD,2024-07-07 08:02:19,15.0883921,0.0001337,53.2162,193.9387,89.0379,271.0766,2.4175e-05,9.7e-07,0.0,0 STARLINK-5219,1 54094U 22136AV  24189.33494747  .00000097  00000-0  24175-4 0  9990,2 54094  53.2162 193.9387 0001337  89.0379 271.0766 15.08839210 95317,6917.883,95.438,540.673,538.823,0.0
54094.0,STARLINK-5219,PAYLOAD,2024-07-08 06:17:43,15.08839763,0.000135,53.2161,189.7753,88.9577,271.157,4.4087e-05,4.14e-06,0.0,0 STARLINK-5219,1 54094U 22136AV  24190.26230685  .00000414  00000-0  44087-4 0  9990,2 54094  53.2161 189.7753 0001350  88.9577 271.1570 15.08839763 94988,6917.881,95.438,540.68,538.812,0.0
